NORAD_CAT_ID,OBJECT_NAME,OBJECT_TYPE,EPOCH,MEAN_MOTION,ECCENTRICITY,INCLINATION,RA_OF_ASC_NODE,ARG_OF_PERICENTER,MEAN_ANOMALY,BSTAR,MEAN_MOTION_DOT,MEAN_MOTION_DDOT,TLE_LINE0,TLE_LINE1,TLE_LINE2,SEMIMAJOR_AXIS,PERIOD,APOGEE,PERIGEE,DECAYED
49154.0,STARLINK-3068,PAYLOAD,2024-06-20 23:36:27,14.9832908,0.0002784,70.0004,54.5945,269.8761,90.2079,6.9849e-06,-1e-07,0.0,0 STARLINK-3068,1 49154U 21082AA  24172.98364704 -.00000010  00000-0  69849-5 0  9996,2 49154  70.0004  54.5945 0002784 269.8761  90.2079 14.98329080153671,6950.196,96.107,573.996,570.126,0.0
49154.0,STARLINK-3068,PAYLOAD,2024-06-21 01:12:35,14.98329504,0.0002761,70.0005,54.4264,267.5777,92.5066,-1.0538e-05,-2.19e-06,0.0,0 STARLINK-3068,1 49154U 21082AA  24173.05040702 -.00000219  00000-0 -10538-4 0  9996,2 49154  70.0005  54.4264 0002761 267.5777  92.5066 14.98329504153685,6950.194,96.107,573.978,570.14,0.0
49154.0,STARLINK-3068,PAYLOAD,2024-06-21 22:02:17,14.98356315,0.0002806,70.0003,52.238,263.6576,96.4264,0.00031834,3.71e-05,0.0,0 STARLINK-3068,1 49154U 21082AA  24173.91826124  .00003710  00000-0  31834-3 0  9999,2 49154  70.0003  52.2380 0002806 263.6576  96.4264 14.98356315153810,6950.112,96.105,573.927,570.026,0.0
49154.0,STARLINK-3068,PAYLOAD,2024-06-22 01:14:33,14.98359833,0.0002809,70.0003,51.9015,260.7605,99.3236,0.00034018,3.971e-05,0.0,0 STARLINK-3068,1 49154U 21082AA  24174.05177537  .00003971  00000-0  34018-3 0  9998,2 49154  70.0003  51.9015 0002809 260.7605  99.3236 14.98359833153836,6950.101,96.105,573.918,570.013,0.0
49154.0,STARLINK-3068,PAYLOAD,2024-06-22 20:28:12,14.98325182,0.000296,70.0,49.8818,266.3681,93.714,-2.542e-05,-3.96e-06,0.0,0 STARLINK-3068,1 49154U 21082AA  24174.85292380 -.00000396  00000-0 -25420-4 0  9998,2 49154  70.0000  49.8818 0002960 266.3681  93.7140 14.98325182153959,6950.208,96.107,574.13,570.016,0.0
49154.0,STARLINK-3068,PAYLOAD,2024-06-22 22:04:20,14.98324734,0.0002938,70.0001,49.7141,262.6661,97.4164,-1.0815e-05,-2.22e-06,0.0,0 STARLINK-3068,1 49154U 21082AA  24174.91968388 -.00000222  00000-0 -10815-4 0  9993,2 49154  70.0001  49.7141 0002938 262.6661  97.4164 14.98324734153960,6950.209,96.107,574.116,570.032,0.0
49154.0,STARLINK-3068,PAYLOAD,2024-06-23 01:16:36,14.98326071,0.0003146,69.9993,49.3758,269.711,90.3688,-4.0356e-05,-5.74e-06,0.0,0 STARLINK-3068,1 49154U 21082AA  24175.05320419 -.00000574  00000-0 -40356-4 0  9999,2 49154  69.9993  49.3758 0003146 269.7110  90.3688 14.98326071153987,6950.205,96.107,574.257,569.884,0.0
49154.0,STARLINK-3068,PAYLOAD,2024-06-23 20:30:13,14.98329786,0.0002981,69.9999,47.3567,267.0028,93.079,-8.2075e-05,-1.072e-05,0.0,0 STARLINK-3068,1 49154U 21082AA  24175.85432393 -.00001072  00000-0 -82075-4 0  9990,2 49154  69.9999  47.3567 0002981 267.0028  93.0790 14.98329786154109,6950.194,96.107,574.13,569.987,0.0
49154.0,STARLINK-3068,PAYLOAD,2024-06-23 22:06:21,14.98331228,0.0003093,69.9997,47.188,269.2347,90.8458,-6.0266e-05,-8.12e-06,0.0,0 STARLINK-3068,1 49154U 21082AA  24175.92108233 -.00000812  00000-0 -60266-4 0  9990,2 49154  69.9997  47.1880 0003093 269.2347  90.8458 14.98331228154117,6950.189,96.107,574.204,569.904,0.0
49154.0,STARLINK-3068,PAYLOAD,2024-06-24 01:18:37,14.98335927,0.0003208,69.9997,46.8516,273.0594,87.0198,-3.9922e-05,-5.69e-06,0.0,0 STARLINK-3068,1 49154U 21082AA  24176.05459858 -.00000569  00000-0 -39922-4 0  9991,2 49154  69.9997  46.8516 0003208 273.0594  87.0198 14.98335927154135,6950.175,96.107,574.269,569.81,0.0
49154.0,STARLINK-3068,PAYLOAD,2024-06-24 20:32:14,14.98324331,0.0002902,70.0,44.8314,266.6572,93.4255,4.7582e-05,4.75e-06,0.0,0 STARLINK-3068,1 49154U 21082AA  24176.85572281  .00000475  00000-0  47582-4 0  9990,2 49154  70.0000  44.8314 0002902 266.6572  93.4255 14.98324331154256,6950.21,96.107,574.092,570.058,0.0
49154.0,STARLINK-3068,PAYLOAD,2024-06-25 01:20:39,14.98318469,0.0002984,69.9998,44.3267,264.5242,95.5577,3.0932e-05,2.76e-06,0.0,0 STARLINK-3068,1 49154U 21082AA  24177.05600815  .00000276  00000-0  30932-4 0  9998,2 49154  69.9998  44.3267 0002984 264.5242  95.5577 14.98318469154280,6950.229,96.108,574.167,570.02,0.0
49154.0,STARLINK-3068,PAYLOAD,2024-06-25 20:34:15,14.98331401,0.0003101,69.9997,42.3063,265.1776,94.9029,0.00012437,1.391e-05,0.0,0 STARLINK-3068,1 49154U 21082AA  24177.85711973  .00001391  00000-0  12437-3 0  9992,2 49154  69.9997  42.3063 0003101 265.1776  94.9029 14.98331401154402,6950.189,96.107,574.209,569.898,0.0
49154.0,STARLINK-3068,PAYLOAD,2024-06-25 22:10:23,14.98335462,0.0003062,69.9997,42.1385,262.5654,97.5157,0.00010016,1.102e-05,0.0,0 STARLINK-3068,1 49154U 21082AA  24177.92387757  .00001102  00000-0  10016-3 0  9990,2 49154  69.9997  42.1385 0003062 262.5654  97.5157 14.98335462154412,6950.176,96.107,574.169,569.913,0.0
49154.0,STARLINK-3068,PAYLOAD,2024-06-26 01:22:38,14.98338703,0.0003051,69.9997,41.8023,261.0545,99.0268,0.00013092,1.47e-05,0.0,0 STARLINK-3068,1 49154U 21082AA  24178.05739416  .00001470  00000-0  13092-3 0  9993,2 49154  69.9997  41.8023 0003051 261.0545  99.0268 14.98338703154431,6950.166,96.106,574.151,569.91,0.0
49154.0,STARLINK-3068,PAYLOAD,2024-06-26 22:12:24,14.98326539,0.000202,70.002,39.6155,260.8564,99.2366,0.00011614,1.293e-05,0.0,0 STARLINK-3068,1 49154U 21082AA  24178.92528442  .00001293  00000-0  11614-3 0  9995,2 49154  70.0020  39.6155 0002020 260.8564  99.2366 14.98326539154564,6950.204,96.107,573.473,570.665,0.0
49154.0,STARLINK-3068,PAYLOAD,2024-06-26 23:48:32,14.98326585,0.0002227,70.0017,39.4474,266.1428,93.9476,0.00011633,1.295e-05,0.0,0 STARLINK-3068,1 49154U 21082AA  24178.99204424  .00001295  00000-0  11633-3 0  9996,2 49154  70.0017  39.4474 0002227 266.1428  93.9476 14.98326585154574,6950.203,96.107,573.616,570.521,0.0
49154.0,STARLINK-3068,PAYLOAD,2024-06-27 22:14:25,14.9833175,0.0002715,70.0008,37.0905,256.6573,103.4284,-3.0097e-05,-4.52e-06,0.0,0 STARLINK-3068,1 49154U 21082AA  24179.92668291 -.00000452  00000-0 -30097-4 0  9998,2 49154  70.0008  37.0905 0002715 256.6573 103.4284 14.98331750154714,6950.187,96.107,573.939,570.166,0.0
49154.0,STARLINK-3068,PAYLOAD,2024-06-27 23:50:33,14.98331888,0.0002772,70.0008,36.9223,260.3411,99.7435,-2.5746e-05,-4e-06,0.0,0 STARLINK-3068,1 49154U 21082AA  24179.99344271 -.00000400  00000-0 -25746-4 0  9992,2 49154  70.0008  36.9223 0002772 260.3411  99.7435 14.98331888154729,6950.187,96.107,573.979,570.125,0.0
49154.0,STARLINK-3068,PAYLOAD,2024-06-28 07:51:13,14.98333337,0.0002839,70.0005,36.0792,269.1916,90.8918,-3.3808e-05,-4.96e-06,0.0,0 STARLINK-3068,1 49154U 21082AA  24180.32724209 -.00000496  00000-0 -33808-4 0  9997,2 49154  70.0005  36.0792 0002839 269.1916  90.8918 14.98333337154773,6950.183,96.107,574.021,570.074,0.0
49154.0,STARLINK-3068,PAYLOAD,2024-06-28 22:16:25,14.98339572,0.0002952,70.0002,34.5643,270.9234,89.1587,0.00013437,1.511e-05,0.0,0 STARLINK-3068,1 49154U 21082AA  24180.92807236  .00001511  00000-0  13437-3 0  9997,2 49154  70.0002  34.5643 0002952 270.9234  89.1587 14.98339572154867,6950.163,96.106,574.08,569.977,0.0
49154.0,STARLINK-3068,PAYLOAD,2024-06-28 23:52:33,14.9834074,0.0002949,70.0003,34.396,270.9608,89.1213,0.00014837,1.678e-05,0.0,0 STARLINK-3068,1 49154U 21082AA  24180.99483102  .00001678  00000-0  14837-3 0  9995,2 49154  70.0003  34.3960 0002949 270.9608  89.1213 14.98340740154875,6950.16,96.106,574.074,569.975,0.0
49154.0,STARLINK-3068,PAYLOAD,2024-06-29 14:17:47,14.98326544,0.0002463,70.0025,32.8826,268.8428,91.2449,5.7916e-05,5.98e-06,0.0,0 STARLINK-3068,1 49154U 21082AA  24181.59568379  .00000598  00000-0  57916-4 0  9998,2 49154  70.0025  32.8826 0002463 268.8428  91.2449 14.98326544154961,6950.204,96.107,573.78,570.357,0.0
49154.0,STARLINK-3068,PAYLOAD,2024-06-29 20:42:20,14.98316909,0.0002777,70.0014,32.2094,271.8834,88.2007,-4.3385e-06,-1.45e-06,0.0,0 STARLINK-3068,1 49154U 21082AA  24181.86273225 -.00000145  00000-0 -43385-5 0  9997,2 49154  70.0014  32.2094 0002777 271.8834  88.2007 14.98316909155009,6950.233,96.108,574.028,570.168,0.0
49154.0,STARLINK-3068,PAYLOAD,2024-06-29 22:18:28,14.98317618,0.000308,70.0003,32.0392,273.242,86.8387,-2.8045e-05,-4.27e-06,0.0,0 STARLINK-3068,1 49154U 21082AA  24181.92949263 -.00000427  00000-0 -28045-4 0  9994,2 49154  70.0003  32.0392 0003080 273.2420  86.8387 14.98317618155015,6950.231,96.108,574.237,569.956,0.0
49154.0,STARLINK-3068,PAYLOAD,2024-06-30 07:55:16,14.98325714,0.0003054,69.9996,31.0284,271.5781,88.5028,5.7825e-06,-2.4e-07,0.0,0 STARLINK-3068,1 49154U 21082AA  24182.33004806 -.00000024  00000-0  57825-5 0  9996,2 49154  69.9996  31.0284 0003054 271.5781  88.5028 14.98325714155077,6950.206,96.107,574.194,569.949,0.0
49154.0,STARLINK-3068,PAYLOAD,2024-06-30 14:19:48,14.98330945,0.0003071,69.9995,30.3548,272.0988,87.982,-6.7565e-06,-1.74e-06,0.0,0 STARLINK-3068,1 49154U 21082AA  24182.59708543 -.00000174  00000-0 -67565-5 0  9992,2 49154  69.9995  30.3548 0003071 272.0988  87.9820 14.98330945155115,6950.19,96.107,574.189,569.921,0.0
49154.0,STARLINK-3068,PAYLOAD,2024-06-30 20:44:19,14.98338848,0.0003123,69.9994,29.6814,270.4956,89.5845,2.0833e-05,1.56e-06,0.0,0 STARLINK-3068,1 49154U 21082AA  24182.86411976  .00000156  00000-0  20833-4 0  9997,2 49154  69.9994  29.6814 0003123 270.4956  89.5845 14.98338848155155,6950.166,96.106,574.201,569.86,0.0
49154.0,STARLINK-3068,PAYLOAD,2024-06-30 22:20:27,14.983404,0.0003059,69.9995,29.5129,270.0545,90.0264,4.6326e-05,4.6e-06,0.0,0 STARLINK-3068,1 49154U 21082AA  24182.93087797  .00000460  00000-0  46326-4 0  9998,2 49154  69.9995  29.5129 0003059 270.0545  90.0264 14.98340400155162,6950.161,96.106,574.152,569.9,0.0
49154.0,STARLINK-3068,PAYLOAD,2024-07-01 14:21:48,14.98327451,0.0002919,69.9998,27.8294,272.6356,87.4469,0.0002215,2.551e-05,0.0,0 STARLINK-3068,1 49154U 21082AA  24183.59848105  .00002551  00000-0  22150-3 0  9990,2 49154  69.9998  27.8294 0002919 272.6356  87.4469 14.98327451155260,6950.201,96.107,574.095,570.037,0.0
